[{"OBJECT_NAME":"IRIDIUM 115","OBJECT_ID":"2017-039D","EPOCH":"2026-03-09T21:44:50.536608","MEAN_MOTION":14.43281411,"ECCENTRICITY":0.00018282,"INCLINATION":86.4554,"RA_OF_ASC_NODE":3.5706,"ARG_OF_PERICENTER":89.0887,"MEAN_ANOMALY":271.0524,"EPHEMERIS_TYPE":0,"CLASSIFICATION_TYPE":"U","NORAD_CAT_ID":42806,"ELEMENT_SET_NO":999,"REV_AT_EPOCH":45994,"BSTAR":0.00015631105,"MEAN_MOTION_DOT":5.46e-6,"MEAN_MOTION_DDOT":0},{"OBJECT_NAME":"FENGYUN 1C DEB","OBJECT_ID":"1999-025TN","EPOCH":"2026-03-09T20:23:16.115712","MEAN_MOTION":14.46532217,"ECCENTRICITY":0.00342023,"INCLINATION":98.7096,"RA_OF_ASC_NODE":173.2339,"ARG_OF_PERICENTER":288.7202,"MEAN_ANOMALY":200.5638,"EPHEMERIS_TYPE":0,"CLASSIFICATION_TYPE":"U","NORAD_CAT_ID":30157,"ELEMENT_SET_NO":999,"REV_AT_EPOCH":99331,"BSTAR":0.0021666909,"MEAN_MOTION_DOT":7.821e-5,"MEAN_MOTION_DDOT":0}]
